[
  {
    "COMMENT": "GENERATED VIA SPACETRACK.ORG API",
    "ORIGINATOR": "18 SPCS",
    "NORAD_CAT_ID": "48621",
    "OBJECT_NAME": "HAIYANG 2D",
    "OBJECT_TYPE": "PAYLOAD",
    "CLASSIFICATION_TYPE": "U",
    "INTLDES": "21043A",
    "EPOCH": "2023-10-01 03:25:54",
    "EPOCH_MICROSECONDS": "369696",
    "MEAN_MOTION": "13.83376083",
    "ECCENTRICITY": "0.0007556",
    "INCLINATION": "65.996",
    "RA_OF_ASC_NODE": "249.5662",
    "ARG_OF_PERICENTER": "270.8759",
    "MEAN_ANOMALY": "89.1443",
    "EPHEMERIS_TYPE": "0",
    "ELEMENT_SET_NO": "999",
    "REV_AT_EPOCH": "11964",
    "BSTAR": "0.000067132",
    "MEAN_MOTION_DOT": "-0.00000007",
    "MEAN_MOTION_DDOT": "0",
    "FILE": "4021491",
    "TLE_LINE0": "0 HAIYANG 2D",
    "TLE_LINE1": "1 48621U 21043A   23274.14299039 -.00000007  00000-0  67132-4 0  9997",
    "TLE_LINE2": "2 48621  65.9960 249.5662 0007556 270.8759  89.1443 13.83376083119645",
    "OBJECT_ID": "2021-043A",
    "OBJECT_NUMBER": "48621",
    "SEMIMAJOR_AXIS": "7330.074",
    "PERIOD": "104.093",
    "APOGEE": "957.477",
    "PERIGEE": "946.400",
    "DECAYED": "0"
  },
  {
    "COMMENT": "GENERATED VIA SPACETRACK.ORG API",
    "ORIGINATOR": "18 SPCS",
    "NORAD_CAT_ID": "48621",
    "OBJECT_NAME": "HAIYANG 2D",
    "OBJECT_TYPE": "PAYLOAD",
    "CLASSIFICATION_TYPE": "U",
    "INTLDES": "21043A",
    "EPOCH": "2023-10-01 10:22:19",
    "EPOCH_MICROSECONDS": "400736",
    "MEAN_MOTION": "13.83376216",
    "ECCENTRICITY": "0.0007554",
    "INCLINATION": "65.996",
    "RA_OF_ASC_NODE": "248.8462",
    "ARG_OF_PERICENTER": "270.9616",
    "MEAN_ANOMALY": "89.0586",
    "EPHEMERIS_TYPE": "0",
    "ELEMENT_SET_NO": "999",
    "REV_AT_EPOCH": "11968",
    "BSTAR": "0.000080778",
    "MEAN_MOTION_DOT": "0.00000008",
    "MEAN_MOTION_DDOT": "0",
    "FILE": "4021803",
    "TLE_LINE0": "0 HAIYANG 2D",
    "TLE_LINE1": "1 48621U 21043A   23274.43216899  .00000008  00000-0  80778-4 0  9993",
    "TLE_LINE2": "2 48621  65.9960 248.8462 0007554 270.9616  89.0586 13.83376216119685",
    "OBJECT_ID": "2021-043A",
    "OBJECT_NUMBER": "48621",
    "SEMIMAJOR_AXIS": "7330.073",
    "PERIOD": "104.093",
    "APOGEE": "957.475",
    "PERIGEE": "946.401",
    "DECAYED": "0"
  },
  {
    "COMMENT": "GENERATED VIA SPACETRACK.ORG API",
    "ORIGINATOR": "18 SPCS",
    "NORAD_CAT_ID": "48621",
    "OBJECT_NAME": "HAIYANG 2D",
    "OBJECT_TYPE": "PAYLOAD",
    "CLASSIFICATION_TYPE": "U",
    "INTLDES": "21043A",
    "EPOCH": "2023-10-01 12:06:25",
    "EPOCH_MICROSECONDS": "658496",
    "MEAN_MOTION": "13.83376216",
    "ECCENTRICITY": "0.0007553",
    "INCLINATION": "65.996",
    "RA_OF_ASC_NODE": "248.6662",
    "ARG_OF_PERICENTER": "270.988",
    "MEAN_ANOMALY": "89.0323",
    "EPHEMERIS_TYPE": "0",
    "ELEMENT_SET_NO": "999",
    "REV_AT_EPOCH": "11965",
    "BSTAR": "0.000078561",
    "MEAN_MOTION_DOT": "0.00000005",
    "MEAN_MOTION_DDOT": "0",
    "FILE": "4021853",
    "TLE_LINE0": "0 HAIYANG 2D",
    "TLE_LINE1": "1 48621U 21043A   23274.50446364  .00000005  00000-0  78561-4 0  9997",
    "TLE_LINE2": "2 48621  65.9960 248.6662 0007553 270.9880  89.0323 13.83376216119653",
    "OBJECT_ID": "2021-043A",
    "OBJECT_NUMBER": "48621",
    "SEMIMAJOR_AXIS": "7330.073",
    "PERIOD": "104.093",
    "APOGEE": "957.474",
    "PERIGEE": "946.402",
    "DECAYED": "0"
  },
  {
    "COMMENT": "GENERATED VIA SPACETRACK.ORG API",
    "ORIGINATOR": "18 SPCS",
    "NORAD_CAT_ID": "48621",
    "OBJECT_NAME": "HAIYANG 2D",
    "OBJECT_TYPE": "PAYLOAD",
    "CLASSIFICATION_TYPE": "U",
    "INTLDES": "21043A",
    "EPOCH": "2023-10-01 17:18:44",
    "EPOCH_MICROSECONDS": "429184",
    "MEAN_MOTION": "13.83376263",
    "ECCENTRICITY": "0.0007558",
    "INCLINATION": "65.9961",
    "RA_OF_ASC_NODE": "248.1262",
    "ARG_OF_PERICENTER": "271.0065",
    "MEAN_ANOMALY": "89.0137",
    "EPHEMERIS_TYPE": "0",
    "ELEMENT_SET_NO": "999",
    "REV_AT_EPOCH": "11972",
    "BSTAR": "0.000078167",
    "MEAN_MOTION_DOT": "0.00000005",
    "MEAN_MOTION_DDOT": "0",
    "FILE": "4022125",
    "TLE_LINE0": "0 HAIYANG 2D",
    "TLE_LINE1": "1 48621U 21043A   23274.72134756  .00000005  00000-0  78167-4 0  9992",
    "TLE_LINE2": "2 48621  65.9961 248.1262 0007558 271.0065  89.0137 13.83376263119720",
    "OBJECT_ID": "2021-043A",
    "OBJECT_NUMBER": "48621",
    "SEMIMAJOR_AXIS": "7330.073",
    "PERIOD": "104.093",
    "APOGEE": "957.478",
    "PERIGEE": "946.398",
    "DECAYED": "0"
  },
  {
    "COMMENT": "GENERATED VIA SPACETRACK.ORG API",
    "ORIGINATOR": "18 SPCS",
    "NORAD_CAT_ID": "48621",
    "OBJECT_NAME": "HAIYANG 2D",
    "OBJECT_TYPE": "PAYLOAD",
    "CLASSIFICATION_TYPE": "U",
    "INTLDES": "21043A",
    "EPOCH": "2023-10-01 22:31:03",
    "EPOCH_MICROSECONDS": "201600",
    "MEAN_MOTION": "13.83376294",
    "ECCENTRICITY": "0.0007555",
    "INCLINATION": "65.9961",
    "RA_OF_ASC_NODE": "247.5862",
    "ARG_OF_PERICENTER": "271.0286",
    "MEAN_ANOMALY": "88.9917",
    "EPHEMERIS_TYPE": "0",
    "ELEMENT_SET_NO": "999",
    "REV_AT_EPOCH": "11971",
    "BSTAR": "0.000072832",
    "MEAN_MOTION_DOT": "-0.00000001",
    "MEAN_MOTION_DDOT": "0",
    "FILE": "4022139",
    "TLE_LINE0": "0 HAIYANG 2D",
    "TLE_LINE1": "1 48621U 21043A   23274.93823150 -.00000001  00000-0  72832-4 0  9998",
    "TLE_LINE2": "2 48621  65.9961 247.5862 0007555 271.0286  88.9917 13.83376294119718",
    "OBJECT_ID": "2021-043A",
    "OBJECT_NUMBER": "48621",
    "SEMIMAJOR_AXIS": "7330.073",
    "PERIOD": "104.093",
    "APOGEE": "957.476",
    "PERIGEE": "946.400",
    "DECAYED": "0"
  },
  {
    "COMMENT": "GENERATED VIA SPACETRACK.ORG API",
    "ORIGINATOR": "18 SPCS",
    "NORAD_CAT_ID": "48621",
    "OBJECT_NAME": "HAIYANG 2D",
    "OBJECT_TYPE": "PAYLOAD",
    "CLASSIFICATION_TYPE": "U",
    "INTLDES": "21043A",
    "EPOCH": "2023-10-02 01:59:15",
    "EPOCH_MICROSECONDS": "713664",
    "MEAN_MOTION": "13.8337631",
    "ECCENTRICITY": "0.0007556",
    "INCLINATION": "65.9961",
    "RA_OF_ASC_NODE": "247.2262",
    "ARG_OF_PERICENTER": "271.0214",
    "MEAN_ANOMALY": "88.9988",
    "EPHEMERIS_TYPE": "0",
    "ELEMENT_SET_NO": "999",
    "REV_AT_EPOCH": "11977",
    "BSTAR": "0.000071858",
    "MEAN_MOTION_DOT": "-0.00000002",
    "MEAN_MOTION_DDOT": "0",
    "FILE": "4022386",
    "TLE_LINE0": "0 HAIYANG 2D",
    "TLE_LINE1": "1 48621U 21043A   23275.08282076 -.00000002  00000-0  71858-4 0  9999",
    "TLE_LINE2": "2 48621  65.9961 247.2262 0007556 271.0214  88.9988 13.83376310119774",
    "OBJECT_ID": "2021-043A",
    "OBJECT_NUMBER": "48621",
    "SEMIMAJOR_AXIS": "7330.073",
    "PERIOD": "104.093",
    "APOGEE": "957.476",
    "PERIGEE": "946.399",
    "DECAYED": "0"
  },
  {
    "COMMENT": "GENERATED VIA SPACETRACK.ORG API",
    "ORIGINATOR": "18 SPCS",
    "NORAD_CAT_ID": "48621",
    "OBJECT_NAME": "HAIYANG 2D",
    "OBJECT_TYPE": "PAYLOAD",
    "CLASSIFICATION_TYPE": "U",
    "INTLDES": "21043A",
    "EPOCH": "2023-10-02 12:23:53",
    "EPOCH_MICROSECONDS": "259360",
    "MEAN_MOTION": "13.83376387",
    "ECCENTRICITY": "0.0007547",
    "INCLINATION": "65.9961",
    "RA_OF_ASC_NODE": "246.1462",
    "ARG_OF_PERICENTER": "271.1637",
    "MEAN_ANOMALY": "88.8566",
    "EPHEMERIS_TYPE": "0",
    "ELEMENT_SET_NO": "999",
    "REV_AT_EPOCH": "11983",
    "BSTAR": "0.000074869",
    "MEAN_MOTION_DOT": "0.00000001",
    "MEAN_MOTION_DDOT": "0",
    "FILE": "4022709",
    "TLE_LINE0": "0 HAIYANG 2D",
    "TLE_LINE1": "1 48621U 21043A   23275.51658865  .00000001  00000-0  74869-4 0  9993",
    "TLE_LINE2": "2 48621  65.9961 246.1462 0007547 271.1637  88.8566 13.83376387119836",
    "OBJECT_ID": "2021-043A",
    "OBJECT_NUMBER": "48621",
    "SEMIMAJOR_AXIS": "7330.072",
    "PERIOD": "104.093",
    "APOGEE": "957.469",
    "PERIGEE": "946.405",
    "DECAYED": "0"
  },
  {
    "COMMENT": "GENERATED VIA SPACETRACK.ORG API",
    "ORIGINATOR": "18 SPCS",
    "NORAD_CAT_ID": "48621",
    "OBJECT_NAME": "HAIYANG 2D",
    "OBJECT_TYPE": "PAYLOAD",
    "CLASSIFICATION_TYPE": "U",
    "INTLDES": "21043A",
    "EPOCH": "2023-10-02 21:04:24",
    "EPOCH_MICROSECONDS": "537792",
    "MEAN_MOTION": "13.83376531",
    "ECCENTRICITY": "0.0007554",
    "INCLINATION": "65.9962",
    "RA_OF_ASC_NODE": "245.2461",
    "ARG_OF_PERICENTER": "271.2128",
    "MEAN_ANOMALY": "88.8074",
    "EPHEMERIS_TYPE": "0",
    "ELEMENT_SET_NO": "999",
    "REV_AT_EPOCH": "11988",
    "BSTAR": "0.000088437",
    "MEAN_MOTION_DOT": "0.00000016",
    "MEAN_MOTION_DDOT": "0",
    "FILE": "4023086",
    "TLE_LINE0": "0 HAIYANG 2D",
    "TLE_LINE1": "1 48621U 21043A   23275.87806178  .00000016  00000-0  88437-4 0  9996",
    "TLE_LINE2": "2 48621  65.9962 245.2461 0007554 271.2128  88.8074 13.83376531119880",
    "OBJECT_ID": "2021-043A",
    "OBJECT_NUMBER": "48621",
    "SEMIMAJOR_AXIS": "7330.072",
    "PERIOD": "104.093",
    "APOGEE": "957.474",
    "PERIGEE": "946.400",
    "DECAYED": "0"
  }
]